TRANSIT 16 [?]          
1 02807U 67048A   17295.23220456  .00000061  00000-0  79378-4 0  9995
2 02807  89.6195  99.8876 0022196  72.8174  31.1714 13.50163127481978
TRANSIT 17 [?]          
1 02965U 67092A   17295.49807955  .00000071  00000-0  88823-4 0  9998
2 02965  89.2499 249.9617 0046026 224.0942 273.6560 13.52883820469338
TRANSIT 18 [?]          
1 03133U 68012A   17295.09345411  .00000035  00000-0  37491-4 0  9994
2 03133  89.9598 274.7020 0077004 140.7087 263.4789 13.50994778444146
NNSS 19 [?]             
1 04507U 70067A   17294.99025689  .00000045  00000-0  51991-4 0  9995
2 04507  89.8372 260.6370 0169963 263.5701  94.6073 13.50663508321133
NNSS O-20 [?]           
1 06909U 73081A   17295.51740289  .00000062  00000-0  54617-4 0  9998
2 06909  89.8203 310.2929 0156662 344.9869  14.6669 13.70457884396581
TRANSAT [?]             
1 10457U 77106A   17294.74634227  .00000058  00000-0  76749-4 0  9996
2 10457  89.7622 169.0147 0026731 124.0853 302.9879 13.48576826966585
NOVA I [?]              
1 12458U 81044A   17294.94437347  .00000028  00000-0  45560-4 0  9995
2 12458  89.9462 120.8898 0015196  29.4018 131.3382 13.22972143758625
NOVA 3 [?]              
1 15362U 84110A   17295.18681016  .00000004  00000-0 -10971-4 0  9993
2 15362  90.0517  55.3997 0030475 242.8405 171.8210 13.22739422594130
OSCAR 30 [?]            
1 15935U 85066A   17295.46991626  .00000083  00000-0  13364-3 0  9996
2 15935  90.1384  51.9102 0169117 189.4375 216.1910 13.35630689567675
OSCAR 24 [?]            
1 15936U 85066B   17295.22940372  .00000039  00000-0  54332-4 0  9995
2 15936  90.1269  45.5562 0169670 194.5075 224.8065 13.35506884569730
POLAR BEAR [?]          
1 17070U 86088A   17295.55486802  .00000048  00000-0  38330-4 0  9990
2 17070  89.5314 320.8330 0040872  83.7089  68.5023 13.74740341551528
OSCAR 27 [?]            
1 18361U 87080A   17294.72912518  .00000041  00000-0  52462-4 0  9998
2 18361  90.3294 339.7066 0106688  98.4104 262.9154 13.44441635476176
OSCAR 29 [?]            
1 18362U 87080B   17295.53838610  .00000029  00000-0  33039-4 0  9994
2 18362  90.3297 339.9614 0108253 112.6577   2.9726 13.44033583475944
OSCAR 23 [?]            
1 19070U 88033A   17294.90639830  .00000016  00000-0  14976-4 0  9998
2 19070  90.3613 277.9177 0190858 167.6451 250.1666 13.27415871427976
OSCAR 32 [?]            
1 19071U 88033B   17294.90376684  .00000008  00000-0 -29287-5 0  9998
2 19071  90.3612 277.9925 0189186 156.9764 261.1688 13.27597136428193
NOVA 11 [?]             
1 19223U 88052A   17294.92447109  .00000038  00000-0  71228-4 0  9994
2 19223  89.9606  86.5196 0028944 289.0496 182.1594 13.22658420416348
OSCAR 25 [?]            
1 19419U 88074A   17294.83477104  .00000046  00000-0  62130-4 0  9994
2 19419  89.9913  18.7857 0098383  87.4192  27.0551 13.42174534427448
OSCAR 31 [?]            
1 19420U 88074B   17294.86935578  .00000045  00000-0  60195-4 0  9991
2 19420  89.9920  18.8114 0096478  81.6208  49.3412 13.42187061427556
